{
  "type": "FeatureCollection",
  "name": "campus_boundary",
  "features": [
    {
      "type": "Feature",
      "properties": {
        "name": "เขตพื้นที่วิทยาลัยสารพัดช่างอุดรธานี",
        "description": "แนวเขตพื้นที่ทั้งหมดของวิทยาลัยสารพัดช่างอุดรธานี"
      },
      "geometry": {
        "type": "Polygon",
        "coordinates": [
          [
            [
              102.788976,
              17.400062
            ],
            [
              102.789269,
              17.399928
            ],
            [
              102.789486,
              17.400272
            ],
            [
              102.789921,
              17.400061
            ],
            [
              102.789957,
              17.400167
            ],
            [
              102.790147,
              17.400111
            ],
            [
              102.790094,
              17.399925
            ],
            [
              102.789536,
              17.399694
            ],
            [
              102.789219,
              17.398733
            ],
            [
              102.788982,
              17.397889
            ],
            [
              102.788773,
              17.39733
            ],
            [
              102.78862,
              17.397085
            ],
            [
              102.787629,
              17.397535
            ],
            [
              102.788976,
              17.400059
            ],
            [
              102.788976,
              17.400062
            ]
          ]
        ]
      }
    }
  ]
}