{
    "type": "FeatureCollection",
    "features": [
        {
            "type": "Feature",
            "properties": {
                "name": "เขตพื้นที่"
            },
            "geometry": {
                "type": "LineString",
                "coordinates": [
                    [
                        102.788976,
                        17.400062
                    ],
                    [
                        102.789269,
                        17.399928
                    ],
                    [
                        102.789486,
                        17.400272
                    ],
                    [
                        102.789921,
                        17.400061
                    ],
                    [
                        102.789957,
                        17.400167
                    ],
                    [
                        102.790147,
                        17.400111
                    ],
                    [
                        102.790094,
                        17.399925
                    ],
                    [
                        102.789536,
                        17.399694
                    ],
                    [
                        102.789219,
                        17.398733
                    ],
                    [
                        102.788982,
                        17.397889
                    ],
                    [
                        102.788773,
                        17.39733
                    ],
                    [
                        102.78862,
                        17.397085
                    ],
                    [
                        102.787629,
                        17.397535
                    ],
                    [
                        102.788976,
                        17.400059
                    ]
                ]
            }
        },
        {
            "type": "Feature",
            "properties": {
                "name": "ประตู 2"
            },
            "geometry": {
                "type": "Polygon",
                "coordinates": [
                    [
                        [
                            102.788806,
                            17.399728
                        ],
                        [
                            102.788775,
                            17.39967
                        ],
                        [
                            102.788794,
                            17.399661
                        ],
                        [
                            102.788824,
                            17.39972
                        ],
                        [
                            102.788806,
                            17.399728
                        ]
                    ]
                ]
            }
        },
        {
            "type": "Feature",
            "properties": {
                "name": "ประตู 1"
            },
            "geometry": {
                "type": "Polygon",
                "coordinates": [
                    [
                        [
                            102.788497,
                            17.399113
                        ],
                        [
                            102.788476,
                            17.399073
                        ],
                        [
                            102.788483,
                            17.399068
                        ],
                        [
                            102.788504,
                            17.39911
                        ],
                        [
                            102.788497,
                            17.399113
                        ]
                    ]
                ]
            }
        },
        {
            "type": "Feature",
            "properties": {
                "name": "ประตู 3"
            },
            "geometry": {
                "type": "Polygon",
                "coordinates": [
                    [
                        [
                            102.788142,
                            17.398449
                        ],
                        [
                            102.788133,
                            17.398453
                        ],
                        [
                            102.788106,
                            17.398403
                        ],
                        [
                            102.788116,
                            17.398399
                        ],
                        [
                            102.788142,
                            17.398449
                        ]
                    ]
                ]
            }
        },
        {
            "type": "Feature",
            "properties": {
                "name": "ประตู 4"
            },
            "geometry": {
                "type": "Polygon",
                "coordinates": [
                    [
                        [
                            102.787741,
                            17.397729
                        ],
                        [
                            102.787722,
                            17.397695
                        ],
                        [
                            102.787731,
                            17.39769
                        ],
                        [
                            102.78775,
                            17.397724
                        ],
                        [
                            102.787741,
                            17.397729
                        ]
                    ]
                ]
            }
        }
    ]
}